[{"OBJECT_NAME":"STARLINK-31724","OBJECT_ID":"2024-074W","EPOCH":"2026-03-09T00:45:34.267104","MEAN_MOTION":15.27562029,"ECCENTRICITY":0.00023835,"INCLINATION":43.002,"RA_OF_ASC_NODE":311.2051,"ARG_OF_PERICENTER":41.9206,"MEAN_ANOMALY":318.1827,"EPHEMERIS_TYPE":0,"CLASSIFICATION_TYPE":"U","NORAD_CAT_ID":59554,"ELEMENT_SET_NO":999,"REV_AT_EPOCH":10632,"BSTAR":6.095083e-6,"MEAN_MOTION_DOT":-9.5e-7,"MEAN_MOTION_DDOT":0},{"OBJECT_NAME":"CZ-2D DEB","OBJECT_ID":"2010-027G","EPOCH":"2026-03-07T07:54:25.300800","MEAN_MOTION":15.18267572,"ECCENTRICITY":0.0071051,"INCLINATION":97.484,"RA_OF_ASC_NODE":105.3106,"ARG_OF_PERICENTER":258.5099,"MEAN_ANOMALY":100.8151,"EPHEMERIS_TYPE":0,"CLASSIFICATION_TYPE":"U","NORAD_CAT_ID":38302,"ELEMENT_SET_NO":999,"REV_AT_EPOCH":83107,"BSTAR":0.0021438,"MEAN_MOTION_DOT":0.00047105,"MEAN_MOTION_DDOT":0}]
